LEMUR-2-LAILA           
1 66776U 25276DQ  26157.43319580  .00008014  00000+0  36279-3 0  9990
2 66776  97.4170 231.4809 0001472 147.8107 212.3219 15.21152512 28815
LEMUR-2-CELIJO-SB-PK    
1 66781U 25276DW  26157.42929830  .00009014  00000+0  73136-3 0  9994
2 66781  97.5276 228.5585 0008831 158.5528 201.6068 14.99845445 21015
LEMUR-2-FINNIAN         
1 66782U 25276DX  26157.47583390  .00008801  00000+0  70692-3 0  9994
2 66782  97.5254 228.8104 0008410 121.5267 238.6780 15.00241974 18393
LEMUR-2-STARLIGHT       
1 66783U 25276DY  26157.15568422  .00008660  00000+0  71867-3 0  9997
2 66783  97.5273 228.1699 0015234 159.8654 200.3173 14.98925272 28549
LEMUR-2-TARTIFLETTE     
1 66784U 25276DZ  26157.42138308  .00010270  00000+0  85100-3 0  9999
2 66784  97.5274 228.4322 0013896 165.1491 195.0143 14.98949627 28589
LEMUR-2-VUKASIN         
1 66785U 25276EA  26157.42432985  .00008984  00000+0  72159-3 0  9997
2 66785  97.5301 228.7061 0006274 149.6616 210.4972 15.00246779 28531
LEMUR-2-HOTSPUR-TOM     
1 66786U 25276EB  26157.14605144  .00009568  00000+0  79561-3 0  9999
2 66786  97.5241 228.1517 0015154 161.7221 198.4550 14.98820107 28478
LEMUR-2-MYRA            
1 66787U 25276EC  26157.45480852  .00008844  00000+0  71177-3 0  9992
2 66787  97.5219 228.6895 0015299 177.2463 182.8848 15.00100506 28608
LEMUR-2 FIKRETDENGIZ    
1 67363U 26004A   26157.51154319  .00004482  00000+0  49082-3 0  9990
2 67363  97.8016 156.2347 0009138 164.5370 195.6128 14.88248406 21698
TWILIGHT-1 OBJECT B     
1 67364U 26004B   26157.53168080  .00002388  00000+0  26809-3 0  9998
2 67364  97.8060 156.2739 0009220 155.4820 204.6837 14.87665646 21702
LEMUR-2-MARIO-SOUSA     
1 67365U 26004C   26156.82422164  .00005803  00000+0  63098-3 0  9992
2 67365  97.7995 155.5546 0008663 166.5581 193.5868 14.88423624 21602
LEMUR-2-SONNENBLUME     
1 67367U 26004E   26157.49356557  .00003364  00000+0  36987-3 0  9997
2 67367  97.7982 156.2017 0008345 166.5825 193.5615 14.88262544 21702
LEMUR-2-WOBLER          
1 67368U 26004F   26156.88340183  .00005622  00000+0  61119-3 0  9992
2 67368  97.8042 155.7125 0008637 157.6666 202.4929 14.88439297 21612
LEMUR-2-GRAM-E-SUE      
1 67370U 26004H   26157.47884150  .00003310  00000+0  36258-3 0  9996
2 67370  97.7974 156.2017 0007265 166.8245 193.3163 14.88424556 21705
LEMUR-2-KATIE           
1 67387U 26004AA  26157.27590270  .00006328  00000+0  66195-3 0  9994
2 67387  97.8041 156.4259 0004625 114.7890 245.3809 14.89973500 21685
LEMUR-2-HCS-BAZUS       
1 67388U 26004AB  26157.47647716  .00006880  00000+0  71927-3 0  9997
2 67388  97.8026 156.6065 0004297 110.0791 250.0890 14.89969345 21719
